NORAD_CAT_ID,OBJECT_NAME,OBJECT_TYPE,EPOCH,MEAN_MOTION,ECCENTRICITY,INCLINATION,RA_OF_ASC_NODE,ARG_OF_PERICENTER,MEAN_ANOMALY,BSTAR,MEAN_MOTION_DOT,MEAN_MOTION_DDOT,TLE_LINE0,TLE_LINE1,TLE_LINE2,SEMIMAJOR_AXIS,PERIOD,APOGEE,PERIGEE,DECAYED
54164.0,STARLINK-5278,PAYLOAD,2023-01-27 11:21:43,15.08836985,0.0001331999999999,53.2195,69.4929,93.9725,266.142,0.00013076,1.794e-05,0.0,0 STARLINK-5278,1 54164U 22141H   23027.47342563  .00001794  00000-0  13076-3 0  9999,2 54164  53.2195  69.4929 0001332  93.9725 266.1420 15.08836985 14177,6917.89,95.438,540.6759999999999,538.8330000000001,0.0
54164.0,STARLINK-5278,PAYLOAD,2023-01-27 19:18:39,15.08838669,0.000135,53.2194,68.0066,93.9487,266.1659,-1.8183e-05,-5.77e-06,0.0,0 STARLINK-5278,1 54164U 22141H   23027.80462763 -.00000577  00000-0 -18183-4 0  9996,2 54164  53.2194  68.0066 0001350  93.9487 266.1659 15.08838669 14229,6917.884,95.438,540.683,538.816,0.0
54164.0,STARLINK-5278,PAYLOAD,2023-01-28 11:12:31,15.08835787,0.0001252,53.218,65.0289,91.0989,269.0146,-9.4789e-05,-1.796e-05,0.0,0 STARLINK-5278,1 54164U 22141H   23028.46703247 -.00001796  00000-0 -94789-4 0  9994,2 54164  53.2180  65.0289 0001252  91.0989 269.0146 15.08835787 14327,6917.893,95.438,540.624,538.892,0.0
54164.0,STARLINK-5278,PAYLOAD,2023-01-28 19:09:27,15.088352,0.0001495,53.2181,63.5425,100.7918,259.3243,1.5317e-05,-4.4e-07,0.0,0 STARLINK-5278,1 54164U 22141H   23028.79823037 -.00000044  00000-0  15317-4 0  9994,2 54164  53.2181  63.5425 0001495 100.7918 259.3243 15.08835200 14377,6917.895,95.438,540.794,538.726,0.0
54164.0,STARLINK-5278,PAYLOAD,2023-01-29 03:06:22,15.08836463,0.0001344,53.218,62.0551,97.3115,262.803,8.6945e-05,1.096e-05,0.0,0 STARLINK-5278,1 54164U 22141H   23029.12942837  .00001096  00000-0  86945-4 0  9994,2 54164  53.2180  62.0551 0001344  97.3115 262.8030 15.08836463 14424,6917.891,95.438,540.686,538.826,0.0
54164.0,STARLINK-5278,PAYLOAD,2023-01-29 09:27:54,15.08845718,0.0001332,53.218,60.8653,95.6338,264.4806,0.00010187,1.334e-05,0.0,0 STARLINK-5278,1 54164U 22141H   23029.39438309  .00001334  00000-0  10187-3 0  9996,2 54164  53.2180  60.8653 0001332  95.6338 264.4806 15.08845718 14464,6917.863,95.437,540.649,538.806,0.0
54164.0,STARLINK-5278,PAYLOAD,2023-01-30 01:21:47,15.08822278,0.0001344,53.2175,57.891,88.7216,271.393,0.00029608,4.425e-05,0.0,0 STARLINK-5278,1 54164U 22141H   23030.05679450  .00004425  00000-0  29608-3 0  9997,2 54164  53.2175  57.8910 0001344  88.7216 271.3930 15.08822278 14563,6917.935,95.439,540.729,538.87,0.0
54164.0,STARLINK-5278,PAYLOAD,2023-01-30 09:18:42,15.0883349,0.0001294,53.2177,56.4046,86.1728,273.9412,0.00017178,2.447e-05,0.0,0 STARLINK-5278,1 54164U 22141H   23030.38799230  .00002447  00000-0  17178-3 0  9993,2 54164  53.2177  56.4046 0001294  86.1728 273.9412 15.08833490 14611,6917.9,95.438,540.66,538.87,0.0
54164.0,STARLINK-5278,PAYLOAD,2023-01-30 18:51:01,15.08841217,0.0001253,53.2178,54.6207,89.3937,270.7199,7.0511e-05,8.35e-06,0.0,0 STARLINK-5278,1 54164U 22141H   23030.78542958  .00000835  00000-0  70511-4 0  9990,2 54164  53.2178  54.6207 0001253  89.3937 270.7199 15.08841217 14672,6917.877,95.437,540.608,538.875,0.0
54164.0,STARLINK-5278,PAYLOAD,2023-01-31 10:44:51,15.08855518,0.0001248,53.2173,51.6472,85.7953,274.3182,-7.3926e-05,-1.465e-05,0.0,0 STARLINK-5278,1 54164U 22141H   23031.44782223 -.00001465  00000-0 -73926-4 0  9990,2 54164  53.2173  51.6472 0001248  85.7953 274.3182 15.08855518 14772,6917.833,95.437,540.561,538.835,0.0
54164.0,STARLINK-5278,PAYLOAD,2023-01-31 18:41:48,15.08843242,0.0001151,53.2166,50.1604,89.9643,270.1481,-7.5452e-06,-4.08e-06,0.0,0 STARLINK-5278,1 54164U 22141H   23031.77902789 -.00000408  00000-0 -75452-5 0  9990,2 54164  53.2166  50.1604 0001151  89.9643 270.1481 15.08843242 14823,6917.87,95.437,540.532,538.939,0.0
54164.0,STARLINK-5278,PAYLOAD,2023-02-01 07:24:52,15.08842958,0.0001263,53.2174,47.7808,90.6095,269.5042,8.2208e-05,1.021e-05,0.0,0 STARLINK-5278,1 54164U 22141H   23032.30894641  .00001021  00000-0  82208-4 0  9993,2 54164  53.2174  47.7808 0001263  90.6095 269.5042 15.08842958 14901,6917.871,95.437,540.61,538.863,0.0
54164.0,STARLINK-5278,PAYLOAD,2023-02-02 07:15:40,15.08816861,0.0001284,53.2164,43.3199,88.7085,271.4054,0.00037114,5.62e-05,0.0,0 STARLINK-5278,1 54164U 22141H   23033.30255590  .00005620  00000-0  37114-3 0  9992,2 54164  53.2164  43.3199 0001284  88.7085 271.4054 15.08816861 15051,6917.951,95.439,540.704,538.928,0.0
54164.0,STARLINK-5278,PAYLOAD,2023-02-03 00:44:54,15.0883767,0.0001152,53.2166,40.0488,88.2606,271.8518,3.5608e-05,2.79e-06,0.0,0 STARLINK-5278,1 54164U 22141H   23034.03119143  .00000279  00000-0  35608-4 0  9998,2 54164  53.2166  40.0488 0001152  88.2606 271.8518 15.08837670 15168,6917.888,95.438,540.549,538.956,0.0
54164.0,STARLINK-5278,PAYLOAD,2023-02-03 07:06:27,15.08841254,0.0001154,53.217,38.8595,88.0096,272.1029,4.7499e-05,4.68e-06,0.0,0 STARLINK-5278,1 54164U 22141H   23034.29614920  .00000468  00000-0  47499-4 0  9990,2 54164  53.2170  38.8595 0001154  88.0096 272.1029 15.08841254 15209,6917.877,95.437,540.54,538.943,0.0
54164.0,STARLINK-5278,PAYLOAD,2023-02-04 03:46:28,15.08838521,0.0001138,53.2173,34.9942,94.4496,265.6626,6.9955e-05,8.26e-06,0.0,0 STARLINK-5278,1 54164U 22141H   23035.15727162  .00000826  00000-0  69955-4 0  9998,2 54164  53.2173  34.9942 0001138  94.4496 265.6626 15.08838521 15339,6917.885,95.438,540.537,538.963,0.0
54164.0,STARLINK-5278,PAYLOAD,2023-02-04 06:57:14,15.08845693,0.0001178,53.2186,34.4014,98.7126,261.4,5.6949e-05,6.19e-06,0.0,0 STARLINK-5278,1 54164U 22141H   23035.28974722  .00000619  00000-0  56949-4 0  9997,2 54164  53.2186  34.4014 0001178  98.7126 261.4000 15.08845693 15359,6917.863,95.437,540.543,538.913,0.0
54164.0,STARLINK-5278,PAYLOAD,2023-02-05 03:37:15,15.08839959,0.0001326,53.2189,30.5374,99.1541,260.9601,-6.0641e-05,-1.253e-05,0.0,0 STARLINK-5278,1 54164U 22141H   23036.15087700 -.00001253  00000-0 -60641-4 0  9996,2 54164  53.2189  30.5374 0001326  99.1541 260.9601 15.08839959 15482,6917.881,95.438,540.663,538.828,0.0
54164.0,STARLINK-5278,PAYLOAD,2023-02-05 06:48:02,15.08839208,0.0001343,53.2189,29.9426,99.404,260.7104,-4.6533e-05,-1.028e-05,0.0,0 STARLINK-5278,1 54164U 22141H   23036.28335722 -.00001028  00000-0 -46533-4 0  9994,2 54164  53.2189  29.9426 0001343  99.4040 260.7104 15.08839208 15504,6917.883,95.438,540.677,538.819,0.0
54164.0,STARLINK-5278,PAYLOAD,2023-02-06 08:14:11,15.0885052,0.0001309,53.219,25.1808,88.9345,271.1797,0.00010331,1.357e-05,0.0,0 STARLINK-5278,1 54164U 22141H   23037.34318738  .00001357  00000-0  10331-3 0  9999,2 54164  53.2190  25.1808 0001309  88.9345 271.1797 15.08850520 15662,6917.848,95.437,540.619,538.808,0.0
54164.0,STARLINK-5278,PAYLOAD,2023-02-07 03:18:49,15.08844686,0.0001313,53.2186,21.6149,93.9136,266.2007,0.00012572,1.714e-05,0.0,0 STARLINK-5278,1 54164U 22141H   23038.13807137  .00001714  00000-0  12572-3 0  9999,2 54164  53.2186  21.6149 0001313  93.9136 266.2007 15.08844686 15783,6917.866,95.437,540.639,538.823,0.0
54164.0,STARLINK-5278,PAYLOAD,2023-02-07 08:04:58,15.08856118,0.0001195,53.2176,20.722,84.4541,275.6587,0.00030976,4.648e-05,0.0,0 STARLINK-5278,1 54164U 22141H   23038.33678598  .00004648  00000-0  30976-3 0  9995,2 54164  53.2176  20.7220 0001195  84.4541 275.6587 15.08856118 15819,6917.831,95.437,540.523,538.869,0.0
54164.0,STARLINK-5278,PAYLOAD,2023-02-08 04:44:59,15.08846159,0.0001191,53.2194,16.8528,97.8711,262.2417,2.1569e-05,5.5e-07,0.0,0 STARLINK-5278,1 54164U 22141H   23039.19790876  .00000055  00000-0  21569-4 0  9991,2 54164  53.2194  16.8528 0001191  97.8711 262.2417 15.08846159 15941,6917.862,95.437,540.55,538.903,0.0
54164.0,STARLINK-5278,PAYLOAD,2023-02-08 07:55:45,15.0885965,0.0001467,53.2198,16.259,99.3376,260.7783,0.00024536,3.621e-05,0.0,0 STARLINK-5278,1 54164U 22141H   23039.33038392  .00003621  00000-0  24536-3 0  9993,2 54164  53.2198  16.2590 0001467  99.3376 260.7783 15.08859650 15969,6917.82,95.436,540.7,538.67,0.0
54164.0,STARLINK-5278,PAYLOAD,2023-02-09 04:35:46,15.08843404,0.0001286,53.2173,12.3945,78.8436,281.27,0.00013772,1.905e-05,0.0,0 STARLINK-5278,1 54164U 22141H   23040.19151303  .00001905  00000-0  13772-3 0  9990,2 54164  53.2173  12.3945 0001286  78.8436 281.2700 15.08843404 16093,6917.87,95.437,540.625,538.845,0.0
54164.0,STARLINK-5278,PAYLOAD,2023-02-09 09:21:56,15.08859205,0.0001396,53.2175,11.5025,79.1885,280.9264,0.0019976,0.00031664,0.0,0 STARLINK-5278,1 54164U 22141H   23040.39023598  .00031664  00000-0  19976-2 0  9992,2 54164  53.2175  11.5025 0001396  79.1885 280.9264 15.08859205 16120,6917.822,95.436,540.652,538.721,0.0
54164.0,STARLINK-5278,PAYLOAD,2023-02-10 04:26:34,15.08869055,0.0001305,53.2177,7.9351,90.725,269.3892,0.0023671,0.00037616,0.0,0 STARLINK-5278,1 54164U 22141H   23041.18511634  .00037616  00000-0  23671-2 0  9993,2 54164  53.2177   7.9351 0001305  90.7250 269.3892 15.08869055 16243,6917.792,95.436,540.559,538.754,0.0
54164.0,STARLINK-5278,PAYLOAD,2023-02-10 09:12:42,15.08894014,0.0001344,53.218,7.0427,93.306,266.8086,0.003173,0.00050648,0.0,0 STARLINK-5278,1 54164U 22141H   23041.38383005  .00050648  00000-0  31730-2 0  9999,2 54164  53.2180   7.0427 0001344  93.3060 266.8086 15.08894014 16276,6917.715,95.434,540.51,538.651,0.0
54164.0,STARLINK-5278,PAYLOAD,2023-02-10 23:31:11,15.08861862,0.0001438,53.2179,4.3662,114.255,245.8593,0.0017571,0.00027804,0.0,0 STARLINK-5278,1 54164U 22141H   23041.97999085  .00027804  00000-0  17571-2 0  9990,2 54164  53.2179   4.3662 0001438 114.2550 245.8593 15.08861862 16361,6917.814,95.436,540.673,538.684,0.0
54164.0,STARLINK-5278,PAYLOAD,2023-02-11 04:17:20,15.08885347,6.13e-05,53.2179,3.4746,81.3874,278.7187,0.0031905,0.00050919,0.0,0 STARLINK-5278,1 54164U 22141H   23042.17870780  .00050919  00000-0  31905-2 0  9993,2 54164  53.2179   3.4746 0000613  81.3874 278.7187 15.08885347 16392,6917.742,95.435,540.031,539.183,0.0
